OBJECT_NAME,OBJECT_ID,EPOCH,MEAN_MOTION,ECCENTRICITY,INCLINATION,RA_OF_ASC_NODE,ARG_OF_PERICENTER,MEAN_ANOMALY,EPHEMERIS_TYPE,CLASSIFICATION_TYPE,NORAD_CAT_ID,ELEMENT_SET_NO,REV_AT_EPOCH,BSTAR,MEAN_MOTION_DOT,MEAN_MOTION_DDOT
ONEWEB-0158,2021-025N,2026-06-14T11:05:25.591200,13.13472109,.00016052,87.8959,320.7596,94.1145,266.0168,0,U,48054,999,25327,-.54098933E-3,-.185E-5,0
ONEWEB-0157,2021-025P,2026-06-14T09:52:18.373728,13.13470522,.0002025,87.8955,320.7755,106.4857,253.6495,0,U,48055,999,25320,.87305685E-3,.332E-5,0
ONEWEB-0162,2021-025Q,2026-06-14T11:07:39.662400,13.13470283,.00019929,87.8956,320.7658,94.3728,265.7629,0,U,48056,999,25318,-.69876159E-3,-.242E-5,0
ONEWEB-0155,2021-025R,2026-06-14T11:17:36.326976,13.13470679,.00017951,87.8956,320.7607,101.6462,258.4869,0,U,48057,999,25332,-.33017942E-3,-.108E-5,0
ONEWEB-0149,2021-025S,2026-06-14T09:59:36.962592,13.13470454,.00020208,87.8959,320.7750,93.5822,266.5538,0,U,48058,999,25312,.10206176E-2,.385E-5,0
ONEWEB-0148,2021-025T,2026-06-14T10:55:40.079136,13.13470390,.00024257,87.8951,320.7740,94.0168,266.1239,0,U,48059,999,25325,-.8814844E-3,-.309E-5,0
ONEWEB-0160,2021-025U,2026-06-14T11:20:02.465664,13.13471532,.00014785,87.8951,320.7669,73.1774,286.9517,0,U,48060,999,25320,-.17085255E-3,-.5E-6,0
ONEWEB-0163,2021-025V,2026-06-14T10:58:05.686464,13.13471416,.00019447,87.8959,320.7642,104.4088,255.7257,0,U,48061,999,25332,-.92660282E-3,-.326E-5,0
ONEWEB-0159,2021-025W,2026-06-14T10:45:54.713952,13.13470902,.00019122,87.8961,320.7591,104.1445,255.9897,0,U,48062,999,25324,-.49350395E-3,-.167E-5,0
ONEWEB-0164,2021-025X,2026-06-14T15:48:11.506464,13.13469880,.0001746,87.8962,320.7240,94.8159,265.3170,0,U,48063,999,25325,.81914257E-3,.312E-5,0
ONEWEB-0167,2021-025Y,2026-06-14T10:59:18.171744,13.13469042,.0001629,87.8951,320.7741,117.7478,242.3816,0,U,48064,999,25321,-.85684985E-3,-.3E-5,0
ONEWEB-0166,2021-025Z,2026-06-14T11:32:12.953472,13.13472437,.00020135,87.8961,320.7407,96.6325,263.5033,0,U,48065,999,25329,.21138076E-3,.9E-6,0
ONEWEB-0151,2021-025AA,2026-06-14T13:24:21.701664,13.13470864,.00017301,87.8952,320.7421,99.5069,260.6256,0,U,48066,999,25324,.20861578E-3,.89E-6,0
ONEWEB-0170,2021-025AB,2026-06-14T11:46:51.682944,13.13470240,.0001352,87.8953,320.7576,93.1106,267.0178,0,U,48067,999,25319,.98865095E-3,.374E-5,0
ONEWEB-0168,2021-025AC,2026-06-14T11:24:55.027296,13.13470832,.00019611,87.8960,320.7603,100.4846,259.6504,0,U,48068,999,25320,.66517756E-4,.37E-6,0
ONEWEB-0173,2021-025AD,2026-06-14T09:23:01.985280,13.13470576,.00018787,87.8951,320.7790,108.0470,252.0864,0,U,48069,999,25343,-.54214041E-3,-.185E-5,0
ONEWEB-0171,2021-025AE,2026-06-14T12:06:21.900960,13.13470279,.00016938,87.8951,320.7645,96.9617,263.1704,0,U,48070,999,25326,.81795424E-3,.311E-5,0
ONEWEB-0172,2021-025AF,2026-06-14T11:37:06.024000,13.13471631,.00017721,87.8956,320.7584,101.6997,258.4331,0,U,48071,999,25415,.44391884E-3,.175E-5,0
ONEWEB-0174,2021-025AG,2026-06-14T11:10:17.995584,13.13470883,.00019836,87.8955,320.7617,96.7732,263.3623,0,U,48072,999,25347,-.61914974E-3,-.213E-5,0
ONEWEB-0175,2021-025AH,2026-06-14T11:54:10.873152,13.13470638,.00014749,87.8962,320.7395,100.9815,259.1480,0,U,48073,999,25313,.92379161E-3,.35E-5,0
ONEWEB-0177,2021-025AJ,2026-06-14T15:50:37.595040,13.13470622,.00019984,87.8958,320.7252,100.2583,259.8772,0,U,48074,999,25334,.71294849E-3,.273E-5,0
ONEWEB-0178,2021-025AK,2026-06-14T10:48:32.159808,13.13468344,.00016932,87.8944,320.7797,104.1720,255.9597,0,U,48075,999,25336,-.50942338E-3,-.173E-5,0
ONEWEB-0108,2021-025AL,2026-06-14T09:49:51.222432,13.13470491,.0001908,87.8959,320.7665,90.0104,270.1244,0,U,48076,999,25328,.73382708E-3,.281E-5,0
ONEWEB-0169,2021-025AM,2026-06-14T10:36:09.903456,13.13469814,.00019271,87.8954,320.7681,96.2688,263.8661,0,U,48077,999,25194,-.14709374E-3,-.41E-6,0
ONEWEB-0176,2021-031A,2026-06-14T14:11:01.220640,13.14503649,.00018739,87.8963,290.2165,103.3250,256.8089,0,U,48210,999,24797,-.18678656E-3,-.56E-6,0
ONEWEB-0184,2021-031B,2026-06-14T15:21:48.449376,13.14503351,.00014276,87.8970,290.2075,124.2065,235.9200,0,U,48211,999,24795,.70277274E-3,.273E-5,0
ONEWEB-0179,2021-031C,2026-06-14T10:15:39.264192,14.25522089,.02186306,87.8986,287.6367,266.3023,91.3146,0,U,48212,999,24865,.86964026E-4,.28E-5,0
ONEWEB-0180,2021-031D,2026-06-14T09:57:33.139296,13.14502042,.00021211,87.8967,290.2485,112.1726,247.9629,0,U,48213,999,24785,.44119914E-3,.176E-5,0
ONEWEB-0218,2021-031E,2026-06-14T14:08:44.135808,13.14502667,.00017527,87.8972,290.2128,128.2804,231.8484,0,U,48214,999,24803,.31036458E-4,.24E-6,0
ONEWEB-0209,2021-031F,2026-06-14T13:52:44.212800,13.14501601,.00021251,87.8962,290.2324,104.4123,255.7243,0,U,48215,999,24803,.50456166E-3,.2E-5,0
