ONEWEB-0158             
1 48054U 21025N   26165.46210175 -.00000185  00000+0 -54099-3 0  9992
2 48054  87.8959 320.7596 0001605  94.1145 266.0168 13.13472109253276
ONEWEB-0157             
1 48055U 21025P   26165.41132377  .00000332  00000+0  87306-3 0  9994
2 48055  87.8955 320.7755 0002025 106.4857 253.6495 13.13470522253209
ONEWEB-0162             
1 48056U 21025Q   26165.46365350 -.00000242  00000+0 -69876-3 0  9993
2 48056  87.8956 320.7658 0001992  94.3728 265.7629 13.13470283253181
ONEWEB-0155             
1 48057U 21025R   26165.47055934 -.00000108  00000+0 -33018-3 0  9999
2 48057  87.8956 320.7607 0001795 101.6462 258.4869 13.13470679253324
ONEWEB-0149             
1 48058U 21025S   26165.41640003  .00000385  00000+0  10206-2 0  9999
2 48058  87.8959 320.7750 0002020  93.5822 266.5538 13.13470454253120
ONEWEB-0148             
1 48059U 21025T   26165.45532499 -.00000309  00000+0 -88148-3 0  9992
2 48059  87.8951 320.7740 0002425  94.0168 266.1239 13.13470390253257
ONEWEB-0160             
1 48060U 21025U   26165.47225076 -.00000050  00000+0 -17085-3 0  9991
2 48060  87.8951 320.7669 0001478  73.1774 286.9517 13.13471532253200
ONEWEB-0163             
1 48061U 21025V   26165.45701026 -.00000326  00000+0 -92660-3 0  9992
2 48061  87.8959 320.7642 0001944 104.4088 255.7257 13.13471416253323
ONEWEB-0159             
1 48062U 21025W   26165.44854993 -.00000167  00000+0 -49350-3 0  9995
2 48062  87.8961 320.7591 0001912 104.1445 255.9897 13.13470902253241
ONEWEB-0164             
1 48063U 21025X   26165.65846651  .00000312  00000+0  81914-3 0  9993
2 48063  87.8962 320.7240 0001746  94.8159 265.3170 13.13469880253259
ONEWEB-0167             
1 48064U 21025Y   26165.45784921 -.00000300  00000+0 -85685-3 0  9991
2 48064  87.8951 320.7741 0001629 117.7478 242.3816 13.13469042253211
ONEWEB-0166             
1 48065U 21025Z   26165.48070548  .00000090  00000+0  21138-3 0  9995
2 48065  87.8961 320.7407 0002013  96.6325 263.5033 13.13472437253292
ONEWEB-0151             
1 48066U 21025AA  26165.55858451  .00000089  00000+0  20862-3 0  9992
2 48066  87.8952 320.7421 0001730  99.5069 260.6256 13.13470864253243
ONEWEB-0170             
1 48067U 21025AB  26165.49087596  .00000374  00000+0  98865-3 0  9995
2 48067  87.8953 320.7576 0001352  93.1106 267.0178 13.13470240253194
ONEWEB-0168             
1 48068U 21025AC  26165.47563689  .00000037  00000+0  66518-4 0  9993
2 48068  87.8960 320.7603 0001961 100.4846 259.6504 13.13470832253202
ONEWEB-0173             
1 48069U 21025AD  26165.39099520 -.00000185  00000+0 -54214-3 0  9998
2 48069  87.8951 320.7790 0001878 108.0470 252.0864 13.13470576253430
ONEWEB-0171             
1 48070U 21025AE  26165.50442015  .00000311  00000+0  81795-3 0  9997
2 48070  87.8951 320.7645 0001693  96.9617 263.1704 13.13470279253261
ONEWEB-0172             
1 48071U 21025AF  26165.48409750  .00000175  00000+0  44392-3 0  9994
2 48071  87.8956 320.7584 0001772 101.6997 258.4331 13.13471631254157
ONEWEB-0174             
1 48072U 21025AG  26165.46548606 -.00000213  00000+0 -61915-3 0  9992
2 48072  87.8955 320.7617 0001983  96.7732 263.3623 13.13470883253470
ONEWEB-0175             
1 48073U 21025AH  26165.49595918  .00000350  00000+0  92379-3 0  9992
2 48073  87.8962 320.7395 0001474 100.9815 259.1480 13.13470638253132
ONEWEB-0177             
1 48074U 21025AJ  26165.66015735  .00000273  00000+0  71295-3 0  9994
2 48074  87.8958 320.7252 0001998 100.2583 259.8772 13.13470622253343
ONEWEB-0178             
1 48075U 21025AK  26165.45037222 -.00000173  00000+0 -50942-3 0  9994
2 48075  87.8944 320.7797 0001693 104.1720 255.9597 13.13468344253363
ONEWEB-0108             
1 48076U 21025AL  26165.40962063  .00000281  00000+0  73383-3 0  9992
2 48076  87.8959 320.7665 0001908  90.0104 270.1244 13.13470491253287
ONEWEB-0169             
1 48077U 21025AM  26165.44178129 -.00000041  00000+0 -14709-3 0  9992
2 48077  87.8954 320.7681 0001927  96.2688 263.8661 13.13469814251947
ONEWEB-0176             
1 48210U 21031A   26165.59098635 -.00000056  00000+0 -18679-3 0  9993
2 48210  87.8963 290.2165 0001873 103.3250 256.8089 13.14503649247979
ONEWEB-0184             
1 48211U 21031B   26165.64014409  .00000273  00000+0  70277-3 0  9998
2 48211  87.8970 290.2075 0001427 124.2065 235.9200 13.14503351247950
ONEWEB-0179             
1 48212U 21031C   26165.42753778  .00000280  00000+0  86964-4 0  9993
2 48212  87.8986 287.6367 0218630 266.3023  91.3146 14.25522089248653
ONEWEB-0180             
1 48213U 21031D   26165.41496689  .00000176  00000+0  44120-3 0  9999
2 48213  87.8967 290.2485 0002121 112.1726 247.9629 13.14502042247858
ONEWEB-0218             
1 48214U 21031E   26165.58939972  .00000024  00000+0  31036-4 0  9990
2 48214  87.8972 290.2128 0001752 128.2804 231.8484 13.14502667248038
ONEWEB-0209             
1 48215U 21031F   26165.57828950  .00000200  00000+0  50456-3 0  9995
2 48215  87.8962 290.2324 0002125 104.4123 255.7243 13.14501601248036
